{"fetched_at":"2026-07-05T12:48:49.388Z","source":"https://celestrak.org/NORAD/elements/gp.php?NAME=TIGER&FORMAT=JSON","constellation":"oq-technology","records":[{"OBJECT_NAME":"TIGER-8","OBJECT_ID":"2024-043Y","EPOCH":"2026-07-04T09:12:43.541856","CLASSIFICATION_TYPE":"U","MEAN_MOTION":15.45003481,"ECCENTRICITY":0.00085543,"INCLINATION":97.5567,"RA_OF_ASC_NODE":334.6939,"ARG_OF_PERICENTER":135.6956,"MEAN_ANOMALY":224.4978,"EPHEMERIS_TYPE":0,"NORAD_CAT_ID":59120,"ELEMENT_SET_NO":999,"REV_AT_EPOCH":13044,"BSTAR":0.00026592591,"MEAN_MOTION_DOT":0.00012466,"MEAN_MOTION_DDOT":0},{"OBJECT_NAME":"TIGER-7","OBJECT_ID":"2024-043AV","EPOCH":"2026-07-04T09:10:47.337312","CLASSIFICATION_TYPE":"U","MEAN_MOTION":15.49135614,"ECCENTRICITY":0.00068372,"INCLINATION":97.5505,"RA_OF_ASC_NODE":337.1382,"ARG_OF_PERICENTER":106.6011,"MEAN_ANOMALY":253.5991,"EPHEMERIS_TYPE":0,"NORAD_CAT_ID":59141,"ELEMENT_SET_NO":999,"REV_AT_EPOCH":13063,"BSTAR":0.00031789438,"MEAN_MOTION_DOT":0.00017214,"MEAN_MOTION_DDOT":0}]}
