TIGER-8                 
1 59120U 24043Y   26185.38383729  .00012466  00000+0  26593-3 0  9991
2 59120  97.5567 334.6939 0008554 135.6956 224.4978 15.45003481130441
TIGER-7                 
1 59141U 24043AV  26185.38249233  .00017214  00000+0  31789-3 0  9994
2 59141  97.5505 337.1382 0006837 106.6011 253.5991 15.49135614130635
